[{"OBJECT_NAME":"HAWK-10B","OBJECT_ID":"2024-149CF","EPOCH":"2026-03-09T22:24:07.674624","MEAN_MOTION":14.96175068,"ECCENTRICITY":0.00063882,"INCLINATION":97.6865,"RA_OF_ASC_NODE":146.0046,"ARG_OF_PERICENTER":71.247,"MEAN_ANOMALY":288.9444,"EPHEMERIS_TYPE":0,"CLASSIFICATION_TYPE":"U","NORAD_CAT_ID":60545,"ELEMENT_SET_NO":999,"REV_AT_EPOCH":8514,"BSTAR":0.00020768682,"MEAN_MOTION_DOT":2.283e-5,"MEAN_MOTION_DDOT":0},{"OBJECT_NAME":"STARLINK-34515","OBJECT_ID":"2025-142S","EPOCH":"2026-03-09T21:14:59.650368","MEAN_MOTION":14.98337717,"ECCENTRICITY":0.000332,"INCLINATION":70.0014,"RA_OF_ASC_NODE":313.7945,"ARG_OF_PERICENTER":267.4823,"MEAN_ANOMALY":92.5956,"EPHEMERIS_TYPE":0,"CLASSIFICATION_TYPE":"U","NORAD_CAT_ID":64712,"ELEMENT_SET_NO":999,"REV_AT_EPOCH":3949,"BSTAR":0.00023972917,"MEAN_MOTION_DOT":2.769e-5,"MEAN_MOTION_DDOT":0}]
